ACS3                    
1 59588U 24077B   24282.45597057  .00013174  00000+0  14803-1 0  9997
2 59588  97.4451 324.4322 0049873 182.3006 177.7925 13.70315070 22894
